OTTER                   
1 62623U 25009Q   26068.72300813  .00012198  00000+0  45151-3 0  9990
2 62623  97.4065 151.3812 0003573 310.7710  49.3219 15.27809545 63722
STARLINK-36102          
1 66849U 25281B   26068.66670139  .00042511  00000+0  15469-2 0  9990
2 66849  43.0042 343.8058 0001702 272.8951 305.2793 15.27548752  5777
