[{"OBJECT_NAME":"OTTER","OBJECT_ID":"2025-009Q","EPOCH":"2026-03-09T17:21:07.902432","MEAN_MOTION":15.27809545,"ECCENTRICITY":0.00035728,"INCLINATION":97.4065,"RA_OF_ASC_NODE":151.3812,"ARG_OF_PERICENTER":310.771,"MEAN_ANOMALY":49.3219,"EPHEMERIS_TYPE":0,"CLASSIFICATION_TYPE":"U","NORAD_CAT_ID":62623,"ELEMENT_SET_NO":999,"REV_AT_EPOCH":6372,"BSTAR":0.00045151206,"MEAN_MOTION_DOT":0.00012198,"MEAN_MOTION_DDOT":0},{"OBJECT_NAME":"STARLINK-36102","OBJECT_ID":"2025-281B","EPOCH":"2026-03-09T16:00:03.000096","MEAN_MOTION":15.27548752,"ECCENTRICITY":0.00017022,"INCLINATION":43.0042,"RA_OF_ASC_NODE":343.8058,"ARG_OF_PERICENTER":272.8951,"MEAN_ANOMALY":305.2793,"EPHEMERIS_TYPE":0,"CLASSIFICATION_TYPE":"U","NORAD_CAT_ID":66849,"ELEMENT_SET_NO":999,"REV_AT_EPOCH":577,"BSTAR":0.0015469241,"MEAN_MOTION_DOT":0.00042511,"MEAN_MOTION_DDOT":0}]
